#aV2015  7 17  0  0  0.00000000     288 DD+AD WGS84 FIT  NGA
## 1853 432000.00000000   300.00000000 57220 0.0000000000000
+   31     1  2  3  4  5  6  7  9 10 11 12 13 14 15 16 17 18
+         19 20 21 22 23 24 25 26 27 28 29 30 31 32  0  0  0
+          0  0  0  0  0  0  0  0  0  0  0  0  0  0  0  0  0
+          0  0  0  0  0  0  0  0  0  0  0  0  0  0  0  0  0
+          0  0  0  0  0  0  0  0  0  0  0  0  0  0  0  0  0
++         2  2  2  2  2  2  2  2  2  2  2  2  2  2  2  2  2
++         2  2  2  2  2  2  2  2  2  2  2  2  2  2  0  0  0
++         0  0  0  0  0  0  0  0  0  0  0  0  0  0  0  0  0
++         0  0  0  0  0  0  0  0  0  0  0  0  0  0  0  0  0
++         0  0  0  0  0  0  0  0  0  0  0  0  0  0  0  0  0
%c cc cc ccc ccc cccc cccc cccc cccc ccccc ccccc ccccc ccccc
%c cc cc ccc ccc cccc cccc cccc cccc ccccc ccccc ccccc ccccc
%f  0.0000000  0.000000000  0.00000000000  0.000000000000000
%f  0.0000000  0.000000000  0.00000000000  0.000000000000000
%i    0    0    0    0      0      0      0      0         0
%i    0    0    0    0      0      0      0      0         0
/*      NGA, ST. LOUIS,MO.                                  
/*   EPHEMERIS COMPUTED FROM  1 DAYS OF DATA                
/*   EPOCHA SMOOTHER                                       
/* CCCCCCCCCCCCCCCCCCCCCCCCCCCCCCCCCCCCCCCCCCCCCCCCCCCCCCCCC
*  2015  7 17  2 10  0.00000000
P  1   1276.674691  15423.107194 -21625.209748     -2.766165                    
V  1 -26103.567626   8128.302865   4461.418822      0.005631                    
P  2  19496.528548 -14951.082249   9869.523876    578.689091                    
V  2  12570.075833  -1162.971520 -28085.080499      0.023011                    
P  3  10250.994716  20915.513601 -12719.124617      7.790819                    
V  3 -13717.448472  -8922.512590 -25726.442551      0.043743                    
P  4  -8551.939954  17326.981163 -18443.492417     -1.968925                    
V  4 -22203.500652   5930.755439  16427.047756     -0.029786                    
P  5   9476.286547 -12297.733379  21493.931815   -217.156194                    
V  5  20894.087497  17841.871188   1181.151920      0.043287                    
P  6  25563.293538  -6656.890502  -2750.862289     17.954197                    
V  6  -2425.228700   3718.334801 -31547.629454      0.081827                    
P  7  16610.712204   8569.389870  19128.690428    474.873738                    
V  7 -22525.780056   8049.263892  15670.334806      0.021220                    
P  9   9240.260373  17539.090016  17663.080080     -7.376566                    
V  9  -6019.376661  21702.503326 -18414.697347     -0.023690                    
P 10  21621.717835   5194.162641  14437.627792   -182.827409                    
V 10  12513.800389  14360.719780 -22854.943982     -0.014596                    
P 11  -1877.288351  19931.632368 -17946.274784   -591.851468                    
V 11 -18773.537046  11815.347252  15678.857260     -0.023893                    
P 12  -7220.577580 -20801.744443 -15113.379278    310.582063                    
V 12  14404.898399  12239.006300 -23685.206647      0.033030                    
P 13  12743.934831 -21899.359944   8031.877677   -132.797403                    
V 13  -1077.707336  10510.150752  29743.243270     -0.033390                    
P 14 -15400.256369    201.802215 -21372.057791     48.430012                    
V 14   7008.389748 -26837.406087  -5396.555231     -0.027045                    
P 15   3209.805738 -26173.082474   -962.854090   -260.876177                    
V 15   4106.954775   -527.972458  31295.343293     -0.021030                    
P 16  -9971.569196  10573.313445  22142.238329   -107.757160                    
V 16 -20062.714768 -19876.726446    810.835601      0.040881                    
P 17  15360.257252  -1771.205923 -21273.081697   -180.417075                    
V 17  -6058.601789  27041.526730  -6736.360380     -0.016032                    
P 18 -21504.687769 -15546.536808  -2595.860718    417.833274                    
V 18   -579.794852  -5346.676522  30519.075225      0.030574                    
P 19  -7456.277126  25224.825196   -203.780047   -516.077360                    
V 19  -2802.551957   -828.777549  32272.176485     -0.009382                    
P 20  -7703.881886 -20193.075671  15232.863974    339.018549                    
V 20  17447.035762   9661.652612  21512.843061      0.032288                    
P 21 -19027.984214  -7261.527215  17928.586129   -464.339900                    
V 21  19536.720251  -8765.513653  17553.924689     -0.031564                    
P 22 -22157.757122  -5235.889855 -13579.345272    371.802809                    
V 22 -11555.264795 -13710.497479  23547.854408      0.039014                    
P 23   1505.308571  24771.117358   8975.667013   -121.444005                    
V 23  -5463.443002  10449.709148 -28866.226365     -0.023360                    
P 24   1724.071155 -16347.578835 -20870.260510     -1.460221                    
V 24  25235.312089  -8054.010802   8553.493102     -0.006235                    
P 25 -17598.147483 -19523.163303  -4495.300533    -13.909230                    
V 25   5530.693607   2105.604182 -31354.894921     -0.044944                    
P 26 -17796.904160   2599.045966  19534.794422     -9.874223                    
V 26 -17870.005317 -17281.017911 -13969.587999     -0.055874                    
P 27 -12065.913609  20662.819885  11374.935730      4.853732                    
V 27    548.797773 -14684.413297  27314.374009      0.027971                    
P 28  21157.069829  11106.230127 -11064.367715    454.098294                    
V 28   9217.062028  11886.046621  27919.159744      0.026413                    
P 29  -6643.731851 -19608.230254  16682.168999    622.804847                    
V 29   6757.164486 -20048.290631 -20847.685811      0.020835                    
P 30  24063.839950   1936.532168  11154.410290    -12.368501                    
V 30 -13086.851706   5951.704118  27102.922250      0.076434                    
P 31 -25646.747845   7572.768182   -221.648752    309.568048                    
V 31   -186.782469  -2123.334963 -31844.259190     -0.012390                    
P 32  -2894.029669  17605.145452 -19860.706561    -97.970764                    
V 32 -18129.951313 -17321.686420 -12192.682272      0.100507                    
EOF
